[{"OBJECT_NAME":"STARLINK-6083","OBJECT_ID":"2023-046S","EPOCH":"2026-03-09T13:19:09.123744","MEAN_MOTION":15.02534932,"ECCENTRICITY":0.0001658,"INCLINATION":43.0049,"RA_OF_ASC_NODE":159.5193,"ARG_OF_PERICENTER":271.5432,"MEAN_ANOMALY":88.522,"EPHEMERIS_TYPE":0,"CLASSIFICATION_TYPE":"U","NORAD_CAT_ID":56109,"ELEMENT_SET_NO":999,"REV_AT_EPOCH":16204,"BSTAR":-2.3119e-5,"MEAN_MOTION_DOT":-5.16e-6,"MEAN_MOTION_DDOT":0},{"OBJECT_NAME":"ICEYE-X37","OBJECT_ID":"2024-043E","EPOCH":"2026-03-09T21:28:27.980256","MEAN_MOTION":15.05207146,"ECCENTRICITY":0.00148076,"INCLINATION":97.8149,"RA_OF_ASC_NODE":204.4924,"ARG_OF_PERICENTER":351.2295,"MEAN_ANOMALY":8.867,"EPHEMERIS_TYPE":0,"CLASSIFICATION_TYPE":"U","NORAD_CAT_ID":59102,"ELEMENT_SET_NO":999,"REV_AT_EPOCH":11014,"BSTAR":0.00044484532,"MEAN_MOTION_DOT":6.299e-5,"MEAN_MOTION_DDOT":0}]
